"Dione" "Sol/Saturn"
{
	Texture "dione.jpg"
	Radius     560

	CustomOrbit "dione"
	EllipticalOrbit
	{
	Period         2.736915
	SemiMajorAxis  377400
	Eccentricity   0.0022
	Inclination    0.02
	MeanAnomaly    310
	}

	RotationOffset 315

	Albedo         0.7
}

"Rhea" "Sol/Saturn"
{
	Texture "rhea.jpg"
	Radius     764

	CustomOrbit "rhea"
	EllipticalOrbit
	{
	Period         4.517500
	SemiMajorAxis  527040
	Eccentricity   0.0010
	Inclination    0.35
	MeanAnomaly    190
	}

	RotationOffset 190

	Albedo         0.7
}

"Titan" "Sol/Saturn"
{
	Texture "titan.jpg"
	Color [ 1.0 0.9 0.75 ]
	HazeColor [ 0.2 0.5 1 ]
	HazeDensity 1
	Radius   2575

	Atmosphere {
		Height 60
		Lower [ 0.8 0.4 0.1 ]
		Upper [ 0.0 0.0 0.9 ]
		Sky [ 0.8 0.4 0.1 ]
	}

	CustomOrbit "titan"
	EllipticalOrbit
	{
	Period        15.945421
	SemiMajorAxis  1221850
	Eccentricity   0.0292
	Inclination    0.33
	MeanAnomaly    120
	}

	RotationOffset 145

	Albedo         0.21
}

"Hyperion" "Sol/Saturn"
{
	Mesh "hyperion.3ds"
	Texture "asteroid.jpg"
	Radius   205

	CustomOrbit "hyperion"
	EllipticalOrbit
	{
	Period        21.276609
	SemiMajorAxis  1481100
	Eccentricity   0.1042
	Inclination    0.43
	MeanAnomaly    350
	}

	# The rotation of Hyperion is chaotic; we don't attempt to model
	# the rotation exactly, but instead use non-zero precession rate to
	# make the rotation appear somewhat irregular.
	Obliquity       25
	RotationPeriod  336 # 13 days
	PrecessionRate  15.65 # 23 days

	Albedo         0.3
}

"Iapetus" "Sol/Saturn"
{
	Texture "iapetus.jpg"
	Radius     718

	CustomOrbit "iapetus"
	EllipticalOrbit
	{
	Period         79.330183
	SemiMajorAxis  3561300
	Eccentricity   0.0283
	Inclination    7.52
	MeanAnomaly    245
	}

	RotationOffset 230

	Albedo         0.2
}

"Phoebe" "Sol/Saturn"
{
	Mesh "roughsphere.cms"
	Texture "asteroid.jpg"
	Radius     110

	CustomOrbit "phoebe"
	EllipticalOrbit
	{
	Epoch          2447892.5
	Period         548.2122790
	SemiMajorAxis  12944346
	Eccentricity   0.16435
	Inclination    174.751
	LongOfPericenter 203.958
	MeanLongitude  390.742
	AscendingNode  233.037
	}

	RotationPeriod 9.6

	Albedo         0.05
}


"Uranus" "Sol"
{
	Texture "uranus.jpg"
	Color [ 0.75 0.85 1.0 ]
	HazeColor [ 0.5 0.8 1.0 ]
	HazeDensity 0.2
	Radius 26200
	Oblateness 0.024

	CustomOrbit "vsop87-uranus"
	EllipticalOrbit
	{
	Period           84.0139
	SemiMajorAxis    19.1913
	Eccentricity      0.0472
	Inclination       0.7699
	AscendingNode     74.230
	LongOfPericenter 170.964
        MeanLongitude    313.232
	}

	RotationPeriod   17.24 # System III - magnetic field
	Obliquity        97.81
	EquatorAscendingNode 167.76

	RotationOffset -28.82

	Albedo            0.66

	Rings {
		Inner  41800
		Outer  51149
		Texture "uranus-rings.png"
	}
}

"Miranda" "Sol/Uranus"
{
	Texture "miranda.jpg"
	Radius   235

	CustomOrbit "miranda"
	EllipticalOrbit
	{
	Period         1.413
	SemiMajorAxis  129800
	Eccentricity   0.0027
	Inclination    4.22
	MeanAnomaly    120
	}

	RotationPeriod 33.92350159 # enforce sync rotation
	RotationOffset 330
}

"Ariel" "Sol/Uranus"
{
	Texture "ariel.jpg"
	Radius   576

	CustomOrbit "ariel"
	EllipticalOrbit
	{
	Period         2.520
	SemiMajorAxis  191200
	Eccentricity   0.0034
	Inclination    0.31
	MeanAnomaly    56
	}

	RotationPeriod 60.48909292 # enforce sync rotation
	RotationOffset 200
}

"Umbriel" "Sol/Uranus"
{
	Texture "umbriel.jpg"
	Radius   585

	CustomOrbit "umbriel"
	EllipticalOrbit
	{
	Period         4.144
	SemiMajorAxis  266000
	Eccentricity   0.0050
	Inclination    0.36
	MeanAnomaly    280
	}

	RotationPeriod 99.46022991 # enforce sync rotation
	RotationOffset 250
}

"Titania" "Sol/Uranus"
{
	Texture "titania.jpg"
	Radius   789

	CustomOrbit "titania"
	EllipticalOrbit
	{
	Period         8.706
	SemiMajorAxis  435800
	Eccentricity   0.0022
	Inclination    0.10
	MeanAnomaly    30
	}

	RotationPeriod 208.94077099 # enforce sync rotation
	RotationOffset 280
}

"Oberon" "Sol/Uranus"
{
	Texture "oberon.jpg"
	Radius   761

	CustomOrbit "oberon"
	EllipticalOrbit
	{
	Period        13.463
	SemiMajorAxis  583600
	Eccentricity   0.0008
	Inclination    0.10
	MeanAnomaly    150
	}

	RotationPeriod 323.117567539 # enforce sync rotation
	RotationOffset 350
}


"Neptune" "Sol"
{
	Texture "neptune.jpg"
	Color [ 0.75 0.75 1.0 ]
	HazeColor [ 0.6 1 0.75 ]
	HazeDensity 0.35
	Radius 25225
	Oblateness 0.027

	CustomOrbit "vsop87-neptune"
	EllipticalOrbit
	{
	Period           164.793
	SemiMajorAxis     30.0690
	Eccentricity      0.0086
	Inclination       1.7692
	AscendingNode   131.722
	LongOfPericenter 44.971
        MeanLongitude   304.880
	}

	RotationPeriod        16.11 # System III - magnetic field
	Obliquity             28.03
	EquatorAscendingNode  49.235
	RotationOffset       228.65

	Albedo                 0.62
}

"Proteus" "Sol/Neptune"
{
	Mesh "proteus.3ds"
	Texture "asteroid.jpg"
	Radius   218

	EllipticalOrbit
	{
	Epoch		2450085.5 #revised value - 1996 Jan 03.0 (earliest Horizons data)
	Period		1.122315  #revised to mean value
	SemiMajorAxis	117600    #revised to mean value
	Eccentricity	0.0004    #revised to mean value
	Inclination	1.101     #revised value - at epoch
	AscendingNode	327.378   #revised value - at epoch
	ArgOfPericenter	277.888   #revised value - at epoch 
	MeanAnomaly	206.367   #revised value - at epoch 
	}

	Obliquity              1.1
	EquatorAscendingNode 327.378
	RotationOffset       281.590

	Albedo         0.2
}

"Triton" "Sol/Neptune"
{
	Texture "triton.jpg"
	Radius   1353

	Atmosphere {
		Height 1
		Lower [ 0.5 0.5 0.5 ]
		Upper [ 0.5 0.5 0.5 ]
		Sky [ 0.0 0.0 0.0 ]
	}

	EllipticalOrbit
	{
	Epoch		2447763.5 #revised value - 1989 Aug 25.00 (Voyager encounter)
	Period		5.8768541 #revised to mean value
	SemiMajorAxis	354765.286 #revised value - at epoch
	Eccentricity	0.000022849 #revised value - at epoch
	Inclination	156.826240 #revised value - at epoch
	#AscendingNode	172.426656 #revised value - at epoch
	AscendingNode	147.899288 #revised value - at epoch
	ArgOfPericenter	293.092400 #revised value - at epoch
	MeanAnomaly	315.726316 #revised value - at epoch
	}

	Obliquity	         23.174
	EquatorAscendingNode	327.899
	RotationOffset	        -53.161

	RotationPeriod	-141.0444984 #correct retrograde rotation

	Albedo         0.7
}

"Nereid" "Sol/Neptune"
{
	Mesh "asteroid.cms"
	Texture "asteroid.jpg"
	Radius   170

	EllipticalOrbit
	{
	Epoch		2447763.5 #revised value - 1989 Aug 25.00 (Voyager encounter)
	Period		360.13619 #revised to mean value
	SemiMajorAxis	5513400   #revised to mean value
	Eccentricity	0.7512    #revised to mean value
	Inclination	28.385    #revised value - at epoch
	AscendingNode	190.678   #revised value - at epoch
	ArgOfPericenter 17.690    #revised value - at epoch
	MeanAnomaly    	36.056    #revised value - at epoch
	}
}


"Pluto" "Sol"
{
	Texture "pluto.jpg"
	BumpMap "plutobump1k.jpg"
	BumpHeight 2.5
	Radius 1137

	CustomOrbit "pluto"
	EllipticalOrbit
	{
	Period            248.54
	SemiMajorAxis     39.48168677
	Eccentricity       0.24880766
	Inclination       17.14175
	AscendingNode    110.30347
	LongOfPericenter 224.06776
        MeanLongitude    238.92881
	}

	RotationPeriod  153.293904
	Obliquity        115.604
	EquatorAscendingNode 228.335
	RotationOffset   -39.25
	
	Albedo            0.3
}

"Charon" "Sol/Pluto"
{
	Texture "charon.jpg"
	Radius   593

	InfoURL "http://www.nineplanets.org/pluto.html#Charon"

	EllipticalOrbit
	{
	Period         6.387246
	SemiMajorAxis  19636
	Eccentricity   0.0076
	Inclination    0.0
	# AscendingNode  103.957
	# ArgOfPericenter 34.3419
	MeanAnomaly     -39.254
	}

	RotationOffset 140.75
	
	Albedo         0.3
}



"Galileo" "Sol"
{
	Class "spacecraft"
	Mesh "galileo.3ds"
	Radius   0.01

	InfoURL "http://galileo.jpl.nasa.gov"

	Beginning "1989 10 19 02:47"   # Launch
	Ending    "2003  9 21 10:44"   # Crash into Jupiter

	SampledOrbit "galileo.xyz"
	EllipticalOrbit
	{
	Period        64.4068
	SemiMajorAxis  4632880
	Eccentricity   0.831774
	Inclination    4.213
	AscendingNode  59.562
	ArgOfPericenter 97.224
	TrueAnomaly    -66.619
	}

	RotationPeriod    1.0e9  # Essentially no rotation . . .
	Orientation     [ 90 0 1 0 ]

	Albedo         0.50
}


# A few main belt asteroids . . 
"Ceres" "Sol"
{
	Class "asteroid"
	Texture "asteroid.jpg"
	Radius 456

	EllipticalOrbit
	{
	Epoch      2452600.5
	Period            4.60014
	SemiMajorAxis     2.7660
	Eccentricity      0.0793
	Inclination      10.584
	AscendingNode    80.483
	ArgOfPericenter  74.043
        MeanAnomaly     232.067
	}

	RotationPeriod    9.075
}

"Pallas" "Sol"
{
	Class "asteroid"
	Texture "asteroid.jpg"
	Radius 260

	EllipticalOrbit
	{
	Epoch      2452600.5
	Period            4.61868
	SemiMajorAxis     2.7733
	Eccentricity      0.2300
	Inclination      34.846
	AscendingNode   173.166
	ArgOfPericenter 310.423
        MeanAnomaly     218.057
	}

	RotationPeriod    7.811
}

"Juno" "Sol"
{
	Class "asteroid"
	Texture "asteroid.jpg"
	Radius 120

	EllipticalOrbit
	{
	Epoch      2452600.5
	Period            4.35540
	SemiMajorAxis     2.6669
	Eccentricity      0.2589
	Inclination      12.972
	AscendingNode   170.133
	ArgOfPericenter 247.948
        MeanAnomaly     119.146
	}

	RotationPeriod    7.811
}

"Vesta" "Sol"
{
	Class "asteroid"
	Mesh   "vesta.3ds"
	Texture "asteroid.jpg"
	Radius 265

	EllipticalOrbit
	{
	Epoch       2452000.5
	Period            3.62729
	SemiMajorAxis     2.3670775
	Eccentricity      0.089753
	Inclination       7.1346
	AscendingNode   103.9510
	ArgOfPericenter 149.4585
        MeanAnomaly     104.980
	}

	RotationPeriod    5.342
}


# Some of the asteroids visited by spacecraft
